GOES 19                 
1 60133U 24119A   26066.11850639 -.00000251  00000+0  00000+0 0  9990
2 60133   0.0464 332.0942 0001197  66.1335  94.0591  1.00271728  5948
FENGYUN 3H              
1 65815U 25219A   26066.14746762  .00000119  00000+0  76437-4 0  9992
2 65815  98.6684   8.9486 0001342  62.8385 297.2928 14.19931724 22908
