[{"OBJECT_NAME":"GOES 19","OBJECT_ID":"2024-119A","EPOCH":"2026-03-07T02:50:38.952096","MEAN_MOTION":1.00271728,"ECCENTRICITY":0.0001197,"INCLINATION":0.0464,"RA_OF_ASC_NODE":332.0942,"ARG_OF_PERICENTER":66.1335,"MEAN_ANOMALY":94.0591,"EPHEMERIS_TYPE":0,"CLASSIFICATION_TYPE":"U","NORAD_CAT_ID":60133,"ELEMENT_SET_NO":999,"REV_AT_EPOCH":594,"BSTAR":0,"MEAN_MOTION_DOT":-2.51e-6,"MEAN_MOTION_DDOT":0},{"OBJECT_NAME":"FENGYUN 3H","OBJECT_ID":"2025-219A","EPOCH":"2026-03-07T03:32:21.202368","MEAN_MOTION":14.19931724,"ECCENTRICITY":0.0001342,"INCLINATION":98.6684,"RA_OF_ASC_NODE":8.9486,"ARG_OF_PERICENTER":62.8385,"MEAN_ANOMALY":297.2928,"EPHEMERIS_TYPE":0,"CLASSIFICATION_TYPE":"U","NORAD_CAT_ID":65815,"ELEMENT_SET_NO":999,"REV_AT_EPOCH":2290,"BSTAR":7.6437e-5,"MEAN_MOTION_DOT":1.19e-6,"MEAN_MOTION_DDOT":0}]
